{
"type": "FeatureCollection",
"name": "kano_state_boundary",
"crs": { "type": "name", "properties": { "name": "urn:ogc:def:crs:OGC:1.3:CRS84" } },
"features": [
{"type":"Feature","properties":{"fid":1,"GID_2":"NGA.20.1_1","GID_0":"NGA","COUNTRY":"Nigeria","GID_1":"NGA.20_1","NAME_1":"Kano","NL_NAME_1":"NA","NAME_2":"Ajingi","VARNAME_2":"NA","NL_NAME_2":"NA","TYPE_2":"Local Authority","ENGTYPE_2":"Local Authority","CC_2":"NA","HASC_2":"NA"},"geometry":{"type":"MultiPolygon","coordinates":[[[[7.933032989000083,11.430614471000183],[7.918715953000174,11.417979241000126],[7.899380207000092,11.399518013000147],[7.876880170000163,11.379628181000044],[7.865519047000078,11.369567872000175],[7.85061311700008,11.363146782000172],[7.849726200000134,11.362995147000163],[7.826086997000061,11.358907700000088],[7.800261974000023,11.35810756800015],[7.776265145000025,11.359209062000161],[7.772504806000029,11.36350727100006],[7.768085957000039,11.36760711800008],[7.762382984000112,11.373077392000084],[7.756475925000075,11.37670135400009],[7.750099182000156,11.380087853000077],[7.74107980600013,11.388287545000139],[7.734458923000034,11.392594337000162],[7.729745864999984,11.39438533800012],[7.726463794000153,11.394578934000151],[7.718159200000116,11.401865006000094],[7.71433687300015,11.407125473000065],[7.713714124000035,11.407699585000103],[7.707687854000028,11.413276673000041],[7.707406043000105,11.416736603000174],[7.704967022000176,11.42362880800016],[7.702240944000039,11.434210777000033],[7.700080872000171,11.437877656000126],[7.698525905000054,11.448473930000034],[7.695477009,11.465510368000139],[7.694467067000119,11.470804214000054],[7.691561221000029,11.477461816000073],[7.69144010500014,11.486229896999987],[7.687561036000091,11.495414735000054],[7.68845510500006,11.498653412000067],[7.693496227000082,11.506787300000155],[7.697167874,11.512367249000079],[7.705879212000127,11.526314735000028],[7.712043763000111,11.537922859000162],[7.714498043000162,11.546717644000182],[7.715526104000048,11.55711078600018],[7.710020066000084,11.565354347000039],[7.713192940000056,11.573236466000026],[7.71855783400008,11.574913025000058],[7.7252631180001,11.58145236900009],[7.731771945000162,11.585219382999981],[7.734751225000082,11.590099334000115],[7.737967015000038,11.594753265000122],[7.742590905000043,11.599189758000136],[7.750513076000118,11.602513313000031],[7.757029056000135,11.605817795000064],[7.76729488400008,11.608938217000173],[7.772668839000175,11.610153198999967],[7.786687851000181,11.613085746000081],[7.792794227,11.612236024000083],[7.803290844000173,11.615589141000157],[7.815814971000179,11.624962806999974],[7.824635029000035,11.63106632299997],[7.833234787000151,11.636241914000038],[7.842754841000044,11.642582893000053],[7.849112988000059,11.640349389000164],[7.862212180000085,11.64211845400007],[7.878810883000085,11.64485073200018],[7.886559963000025,11.643786430000034],[7.89520692800005,11.645503045000055],[7.899374961000035,11.649011612000038],[7.901216982999983,11.651894569999968],[7.901897907000034,11.652961732],[7.90019607500011,11.65755653500014],[7.899470806000011,11.658932687000117],[7.898880958000063,11.667694092000033],[7.89547300300012,11.676883698000097],[7.893784047000167,11.680324554000038],[7.892293930000051,11.686306],[7.887729168000021,11.694328308000024],[7.879599095000117,11.70600032800013],[7.875261783999974,11.714487075000022],[7.870306969000126,11.733810426000048],[7.865828992000047,11.752449035999973],[7.855824948000077,11.763867378999976],[7.851187228000072,11.777195931000051],[7.856392860000028,11.790405272999976],[7.857674122000162,11.799155235000114],[7.859601975000032,11.812362671000074],[7.858976841000015,11.823659895999981],[7.862006188000123,11.841694831000154],[7.854496956000162,11.859142304000045],[7.853254795000169,11.862017631000185],[7.846263885000099,11.878192901000034],[7.841832159999967,11.893602371000156],[7.834340096,11.909895897000183],[7.828179835000071,11.914670945000069],[7.827805995,11.924587250000116],[7.830916881,11.934549332000131],[7.836555005000037,11.95260715600017],[7.838995934000138,11.962327004000031],[7.837446211999975,11.976621628000089],[7.836894989000143,11.984697342],[7.837570190000122,11.987070083000162],[7.841843128000164,12.002065658],[7.84217119300007,12.015228272000172],[7.839294911000081,12.022587777000069],[7.837844848000088,12.027420044000166],[7.839568139000164,12.041060448000053],[7.838910103000046,12.059292793000054],[7.839229108000097,12.073377610000023],[7.839818955000112,12.083772660000022],[7.840291023000077,12.105250359000138],[7.839425087000052,12.121171952000054],[7.83737802600001,12.138465882000105],[7.837130070000114,12.162241935999987],[7.832386970000073,12.191972732000067],[7.830787182000051,12.211119652000093],[7.831976891000181,12.230986595000161],[7.833855151000137,12.24698925000007],[7.833901883000124,12.247399330000064],[7.835198879000131,12.257110597],[7.838171006000096,12.262913704000141],[7.850628852000057,12.275281906000089],[7.859322072000055,12.282320023000068],[7.861032962000081,12.283705711000152],[7.864953041000149,12.287673950000112],[7.86818504300004,12.29094028500009],[7.870491981000157,12.293273927000087],[7.875597,12.295637130000159],[7.885553836000156,12.301980019000155],[7.900629043000038,12.30975913900005],[7.909434795000152,12.314702034000163],[7.922195911000131,12.320611953000025],[7.928439141000126,12.325526238000123],[7.939106941000148,12.330949783999984],[7.948162079999975,12.334509849000142],[7.961403848000145,12.339038849000019],[7.978613854000173,12.343148231000043],[8.000233650000041,12.349150658000099],[8.019977570000094,12.356060029000105],[8.044381141000031,12.363475799000128],[8.062511443000176,12.368749619000027],[8.066809655000156,12.370702745000131],[8.077593803000184,12.375608445000182],[8.090541839000025,12.381266595000056],[8.093839646000106,12.38270664200013],[8.107284546000187,12.390009880000093],[8.121875763,12.399399757000083],[8.126937867000152,12.405688287000146],[8.134556770000017,12.412925721000136],[8.138098717999981,12.430742264000173],[8.141650199000139,12.447864533000143],[8.146369933000187,12.464767455000185],[8.152708053000026,12.482615471000088],[8.159588815000063,12.493538856000157],[8.166677475000029,12.506775856000104],[8.170539856000119,12.516514778000101],[8.175339698000073,12.52556800900004],[8.179348946000118,12.543389320000074],[8.18737983699998,12.555711747000089],[8.197342872000036,12.561590195000122],[8.208043098000189,12.56401157300013],[8.225287438000066,12.564889907000122],[8.238791466000066,12.567116738999971],[8.256102562000081,12.569163322000122],[8.270401955000125,12.568866731000185],[8.278591156000061,12.569656373000157],[8.282835007000131,12.569607735000034],[8.283538818000181,12.567866326000114],[8.289064407000069,12.558241845],[8.300530434000109,12.542687416000092],[8.307973861,12.529852868000091],[8.318104743000163,12.509203910000053],[8.326047897000137,12.494070053000144],[8.33468532500018,12.479634285000145],[8.339508056000113,12.470000268000149],[8.340055466000138,12.464239121000162],[8.34107589700011,12.458251],[8.33908653300017,12.449690819000068],[8.341113091000182,12.438870429000076],[8.347535134000111,12.432024956000078],[8.355842591000112,12.424507141000049],[8.358468056,12.421078683000076],[8.362451553000028,12.424297334000187],[8.364261628000122,12.425758362000124],[8.367226600000151,12.431559562000132],[8.369733810000071,12.436665536000021],[8.372477531000186,12.44154453200008],[8.374041557000112,12.447099685000126],[8.380436896000163,12.458942415000138],[8.382252694000101,12.463114738000115],[8.385418892000075,12.471459389000188],[8.388601304000133,12.478419305000159],[8.389442443000178,12.485349655000164],[8.390066147000084,12.49112606000017],[8.390930175,12.496212959000161],[8.39342117200016,12.502470970000047],[8.394747734000134,12.508253098000068],[8.395149231000062,12.513102532000062],[8.398571968000169,12.519605637000154],[8.407592774000136,12.528245927000057],[8.415946007,12.534111977000123],[8.426628113000106,12.541159629999981],[8.446583748000023,12.550606728000048],[8.44711494500001,12.550856590000137],[8.458044053000151,12.556985856000097],[8.471077919000152,12.563366890000168],[8.484126090000188,12.568825721000167],[8.49111557000009,12.571675300000152],[8.500237465000168,12.572935104000123],[8.511478424000074,12.57352828900008],[8.526679994000176,12.575781822000067],[8.527714730000184,12.575890542000025],[8.541420937000112,12.577339173000098],[8.551966667000102,12.577231408000102],[8.568191528999989,12.571675300000152],[8.574225427000101,12.569681169000091],[8.586309433,12.567072869000071],[8.607576370000061,12.562971114999982],[8.613370896000106,12.561918258],[8.615859985000043,12.56146430900003],[8.627240181000047,12.55654430400017],[8.639755250000178,12.552559852000172],[8.654076576000136,12.549288751000176],[8.666634559999977,12.548529625000072],[8.67758846300012,12.545215607000102],[8.681771278999975,12.539277077000122],[8.682550430000049,12.530759812000156],[8.681571960000099,12.524982452000131],[8.682755470000188,12.513239861000159],[8.681834222000134,12.495480537000105],[8.682809830000053,12.48488998300013],[8.684008599000038,12.474301339000135],[8.68247508900015,12.460680961000094],[8.684810639000148,12.451260567000134],[8.690258026000095,12.43934631400009],[8.703137398000081,12.429371834000108],[8.709386824999967,12.426688194000121],[8.717864990000066,12.423111916000153],[8.730193138000118,12.414427757000055],[8.74474334700011,12.405942916000129],[8.75659465800004,12.403002739000158],[8.764752387000101,12.395636558000035],[8.768919945000107,12.388814926000123],[8.771802903000093,12.384099960000128],[8.773631096000088,12.374381065000023],[8.778078079000068,12.363290787000096],[8.782384873000069,12.346872330999986],[8.781851769000014,12.337142945000039],[8.775925636000068,12.325528145000021],[8.773286820000067,12.314860343000021],[8.785140990000116,12.298715592000121],[8.789731025000037,12.292721748000133],[8.794342041000164,12.290425301000141],[8.803066253000111,12.286083222000116],[8.813525200000129,12.286399842000037],[8.827201844,12.286911011000143],[8.841805458000067,12.283769609000103],[8.858315467000182,12.279751778000104],[8.87530613000007,12.278038025000171],[8.890970229,12.277211189000127],[8.904564857000082,12.273006439000028],[8.90888595600012,12.27167034200005],[8.920867920000092,12.268307687000117],[8.927763939000045,12.26397800400008],[8.935700418000067,12.255495071000098],[8.941516876000094,12.238673211000048],[8.946474075000026,12.213524819000099],[8.948751449000156,12.208718300000044],[8.947382927999968,12.119597436000163],[8.941957474000162,12.11247539500016],[8.928378105000036,12.097564698000042],[8.923214913000038,12.083188057000029],[8.919800758000065,12.070213319000175],[8.925551415000086,12.064024925000069],[8.937533379000115,12.060661317000097],[8.946449279000092,12.058646202000091],[8.946418762000121,12.056795120000061],[8.946351052000068,12.042288780999968],[8.958287239000072,12.051349640000183],[8.962469102000171,12.055084228000055],[8.965491294000117,12.05672931700002],[8.966219903000081,12.057755470000131],[8.97409915999998,12.05844307000018],[8.977162361000069,12.059354783],[8.977160453000067,12.061264992000076],[8.992435456000123,12.060699463000049],[9.02787113200003,12.065278052999986],[9.037039757000059,12.042366027000185],[9.037244796000095,12.001476288000106],[9.059395789000121,11.997504235000179],[9.088804245000119,12.000413896000111],[9.126162530000045,12.022868156000129],[9.149911881000151,12.050771713000017],[9.170082093000133,12.059247970000172],[9.181575775000056,12.027072908000036],[9.205112457000098,11.950760841999966],[9.206912994000106,11.944931031000181],[9.210099221000064,11.905941963999965],[9.192964553000024,11.876518250000117],[9.192190169000071,11.868643761000044],[9.189791679000052,11.843978883000148],[9.164560317000166,11.805678368000088],[9.135535240000138,11.769334793000098],[9.127559661000078,11.736012459000108],[9.130711556000165,11.704882622000184],[9.132455824999965,11.702877045999969],[9.169768334000025,11.703778268000121],[9.179490089000183,11.704011917000173],[9.212409974000025,11.707202911000081],[9.230085373000065,11.691419602000053],[9.238184929000056,11.659686090000037],[9.251479149999966,11.634742735999964],[9.262013436000132,11.615871429000038],[9.289003373000128,11.58853340100012],[9.307730676,11.573771476000047],[9.314411164000148,11.572122574000048],[9.341605186000095,11.565418243000181],[9.355868339000097,11.547020913000097],[9.333945274000087,11.524945259000049],[9.318476676999978,11.50935363800005],[9.286773681000057,11.484127998000076],[9.253004074000046,11.453652383000133],[9.240965843000083,11.437438011000097],[9.230495452000184,11.405654908000145],[9.223441124000033,11.378216743000166],[9.228278160000059,11.35185432500009],[9.224687577000054,11.34247970600012],[9.222376824000094,11.342052461000037],[9.188422203000073,11.32980346700009],[9.187183380000135,11.329557420000071],[9.169589995000081,11.319813729000089],[9.135617255999989,11.307813644000078],[9.117236137000134,11.309362411000109],[9.098804473000087,11.326272964000111],[9.0800428390001,11.323057175000031],[9.071510314000136,11.321589469000116],[9.031408310000131,11.296554566000054],[9.020559312000103,11.27898597799998],[8.999037743000088,11.261472702000106],[8.980991363000157,11.244014739000079],[8.971805572000108,11.23792171600013],[8.963708878000034,11.232552529000088],[8.960913659000141,11.22510528600003],[8.960919380000178,11.224710465000101],[8.944037438000123,11.212577821000082],[8.922189712000034,11.18507766700003],[8.901162147000093,11.146995545000038],[8.873487473000182,11.112731935000113],[8.856869697000093,11.095671653000011],[8.824013709000099,11.087586404000092],[8.780293465000057,11.090094567000051],[8.771566391000079,11.086458206000032],[8.76384925800005,11.083239555000091],[8.750066757000013,11.056770325000059],[8.738031388000138,11.010445594000089],[8.731818199000031,10.96268653900006],[8.730831145000082,10.954470634000188],[8.733305931000018,10.891864778000183],[8.737223625000183,10.844479562000117],[8.744515419000095,10.812807083000109],[8.762499809000076,10.78681755000008],[8.784408569,10.766647340000077],[8.789421081000171,10.761483193000117],[8.806897162000098,10.743489265000051],[8.819338798000103,10.716958047000048],[8.820596694000074,10.684963227000082],[8.812672615,10.652833939],[8.799104690000149,10.623385429000052],[8.780443192000121,10.594550133000041],[8.769293785000173,10.580336570000043],[8.757191658000067,10.558047295000108],[8.745594977000053,10.550274849000061],[8.741278648000048,10.549092293000115],[8.724269868000135,10.544431687000156],[8.675842286000147,10.554770469000061],[8.65639209700015,10.565997123000102],[8.64993572200018,10.57142829999998],[8.639609335999978,10.584632874000079],[8.625824927000167,10.600088120000066],[8.618086815000083,10.615406036000024],[8.573536872000034,10.625569344000041],[8.545900345,10.62815284800007],[8.522908210000026,10.627873420000071],[8.504676818000064,10.630937576000122],[8.487415314000032,10.648104668000144],[8.483137131000149,10.662851334000095],[8.481723785000099,10.667684555000051],[8.477734565000048,10.681286813000042],[8.486679077000133,10.693846704000123],[8.497190475000139,10.699720384000102],[8.524330138999971,10.701363564000189],[8.543969154000024,10.709172249000119],[8.555665970000064,10.726843835000182],[8.558963776000041,10.754369735000012],[8.550667763000149,10.790567398000178],[8.545535087000189,10.820095062000121],[8.539498329000025,10.85099983300006],[8.540727615000151,10.874578475000135],[8.547657012000172,10.897518158000082],[8.555759429000034,10.929479600000093],[8.564039230000105,10.94758129100012],[8.572100640000087,10.968450546000099],[8.57012176500001,10.988072396000064],[8.569760323000139,11.012331010000139],[8.565952302000085,11.030316353000103],[8.549867630000108,11.057201385000042],[8.537888527000064,11.084815026000115],[8.522721291000096,11.113784789000022],[8.511805534000132,11.127877235000028],[8.507972716999973,11.132824899000127],[8.487054825000087,11.146566391000022],[8.486820221000073,11.146718025000155],[8.463429450000149,11.171684265000124],[8.439828871999964,11.189731598000094],[8.421059609000167,11.203436853000142],[8.381517409000139,11.21279335100013],[8.364207268000087,11.214490891000082],[8.336635589000082,11.212397575000068],[8.31194686900011,11.221194267000158],[8.294274331000167,11.235830308000118],[8.279509544000064,11.26182079400013],[8.255123139000148,11.286963464000166],[8.227670670000066,11.298329353999975],[8.202651022999987,11.304466247000164],[8.194607736000023,11.306631088000131],[8.163449288000152,11.32011699800006],[8.137679100000071,11.335716249000143],[8.120818138000175,11.354610444000173],[8.11264515,11.376099586000066],[8.112294196000107,11.395551682000132],[8.122589111000025,11.413676262000024],[8.135609626000075,11.437606811000023],[8.146304129999976,11.459669114000178],[8.141227722000053,11.479556083999967],[8.122895240000048,11.492571831000021],[8.103181839000115,11.495541573000025],[8.083831787000122,11.492292404000068],[8.059038163000025,11.48482132099997],[8.037363052000103,11.47577762700007],[8.029869079000093,11.475811959000112],[8.010654449000128,11.47588920700008],[7.976881981000133,11.457534790000125],[7.971977234000121,11.454866410000136],[7.957252026000162,11.444993019000094],[7.933032989000083,11.430614471000183]]]]}}
]
}
